EUTELSAT QUANTUM        
1 49056U 21069B   25344.04280972  .00000129  00000+0  00000+0 0  9992
2 49056   0.0154  17.7471 0003733 254.4251 229.9614  1.00271191 16037
EUTELSAT KONNECT VHTS   
1 53765U 22110A   25343.99072580  .00000020  00000+0  00000+0 0  9999
2 53765   0.0646 101.3791 0002577 136.8427 200.1185  1.00271013  4925
EUTELSAT HOTBIRD 13F    
1 54048U 22134A   25344.03794777  .00000090  00000+0  00000+0 0  9992
2 54048   0.0509 290.7217 0001965  66.6695 108.3077  1.00269342 11481
EUTELSAT HOTBIRD 13G    
1 54225U 22146A   25344.03794777  .00000090  00000+0  00000+0 0  9992
2 54225   0.0516 237.7706 0001852 319.6405 268.2621  1.00273852  5570
EUTELSAT 10B            
1 54259U 22157A   25344.03794777  .00000071  00000+0  00000+0 0  9990
2 54259   0.0605  99.2164 0000792  72.3757 291.0644  1.00269493 11134
EUTELSAT 36D            
1 59346U 24059A   25343.95253161  .00000000  00000+0  00000+0 0  9994
2 59346   0.0174 350.2442 0000493 342.9302 124.5242  1.00268847  6259
